[
  {
    "OBJECT_NAME": "STARLINK-3558",
    "OBJECT_ID": "22029AH",
    "EPOCH": "2025-11-11T05:09:25.157664",
    "MEAN_MOTION": 15.08853821,
    "ECCENTRICITY": 0.0001558,
    "INCLINATION": 53.2182,
    "RA_OF_ASC_NODE": 250.9724,
    "ARG_OF_PERICENTER": 88.2023,
    "MEAN_ANOMALY": 271.9148,
    "EPHEMERIS_TYPE": 0,
    "CLASSIFICATION_TYPE": "U",
    "NORAD_CAT_ID": 52119,
    "ELEMENT_SET_NO": 999,
    "REV_AT_EPOCH": 20290,
    "BSTAR": 0.00021784999999999998,
    "MEAN_MOTION_DOT": 3.182e-05,
    "MEAN_MOTION_DDOT": 0.0,
    "TLE_LINE1": "1 52119U 22029AH  25315.21487451  .00003182  00000+0  21785-3 0  9990",
    "TLE_LINE2": "2 52119  53.2182 250.9724 0001558  88.2023 271.9148 15.08853821202908",
    "COMMENT": "Grouped by shell and plane from TLE"
  },
  {
    "OBJECT_NAME": "STARLINK-3534",
    "OBJECT_ID": "22029AJ",
    "EPOCH": "2025-11-11T05:25:18.874560",
    "MEAN_MOTION": 15.08850212,
    "ECCENTRICITY": 0.0001303,
    "INCLINATION": 53.2165,
    "RA_OF_ASC_NODE": 250.9237,
    "ARG_OF_PERICENTER": 103.0727,
    "MEAN_ANOMALY": 257.041,
    "EPHEMERIS_TYPE": 0,
    "CLASSIFICATION_TYPE": "U",
    "NORAD_CAT_ID": 52120,
    "ELEMENT_SET_NO": 999,
    "REV_AT_EPOCH": 20291,
    "BSTAR": 9.389600000000001e-05,
    "MEAN_MOTION_DOT": 1.207e-05,
    "MEAN_MOTION_DDOT": 0.0,
    "TLE_LINE1": "1 52120U 22029AJ  25315.22591290  .00001207  00000+0  93896-4 0  9999",
    "TLE_LINE2": "2 52120  53.2165 250.9237 0001303 103.0727 257.0410 15.08850212202914",
    "COMMENT": "Grouped by shell and plane from TLE"
  },
  {
    "OBJECT_NAME": "STARLINK-3726",
    "OBJECT_ID": "22029AL",
    "EPOCH": "2025-11-11T05:14:42.863424",
    "MEAN_MOTION": 15.08852063,
    "ECCENTRICITY": 0.000126,
    "INCLINATION": 53.2171,
    "RA_OF_ASC_NODE": 250.957,
    "ARG_OF_PERICENTER": 80.3495,
    "MEAN_ANOMALY": 279.7639,
    "EPHEMERIS_TYPE": 0,
    "CLASSIFICATION_TYPE": "U",
    "NORAD_CAT_ID": 52122,
    "ELEMENT_SET_NO": 999,
    "REV_AT_EPOCH": 20290,
    "BSTAR": 0.00016700000000000002,
    "MEAN_MOTION_DOT": 2.372e-05,
    "MEAN_MOTION_DDOT": 0.0,
    "TLE_LINE1": "1 52122U 22029AL  25315.21855166  .00002372  00000+0  16700-3 0  9997",
    "TLE_LINE2": "2 52122  53.2171 250.9570 0001260  80.3495 279.7639 15.08852063202903",
    "COMMENT": "Grouped by shell and plane from TLE"
  },
  {
    "OBJECT_NAME": "STARLINK-3730",
    "OBJECT_ID": "22029BD",
    "EPOCH": "2025-11-11T06:28:54.735744",
    "MEAN_MOTION": 15.08862285,
    "ECCENTRICITY": 0.0001137,
    "INCLINATION": 53.2154,
    "RA_OF_ASC_NODE": 250.7242,
    "ARG_OF_PERICENTER": 100.1148,
    "MEAN_ANOMALY": 259.9972,
    "EPHEMERIS_TYPE": 0,
    "CLASSIFICATION_TYPE": "U",
    "NORAD_CAT_ID": 52139,
    "ELEMENT_SET_NO": 999,
    "REV_AT_EPOCH": 20291,
    "BSTAR": 0.00088689,
    "MEAN_MOTION_DOT": 0.00013864,
    "MEAN_MOTION_DDOT": 0.0,
    "TLE_LINE1": "1 52139U 22029BD  25315.27007796  .00013864  00000+0  88689-3 0  9992",
    "TLE_LINE2": "2 52139  53.2154 250.7242 0001137 100.1148 259.9972 15.08862285202913",
    "COMMENT": "Grouped by shell and plane from TLE"
  },
  {
    "OBJECT_NAME": "STARLINK-4277",
    "OBJECT_ID": "22076Z",
    "EPOCH": "2025-11-11T06:25:35.516352",
    "MEAN_MOTION": 15.08857802,
    "ECCENTRICITY": 0.0001399,
    "INCLINATION": 53.2162,
    "RA_OF_ASC_NODE": 255.7376,
    "ARG_OF_PERICENTER": 90.6479,
    "MEAN_ANOMALY": 269.4673,
    "EPHEMERIS_TYPE": 0,
    "CLASSIFICATION_TYPE": "U",
    "NORAD_CAT_ID": 53009,
    "ELEMENT_SET_NO": 999,
    "REV_AT_EPOCH": 18510,
    "BSTAR": 0.00038035,
    "MEAN_MOTION_DOT": 5.773e-05,
    "MEAN_MOTION_DDOT": 0.0,
    "TLE_LINE1": "1 53009U 22076Z   25315.26777218  .00005773  00000+0  38035-3 0  9993",
    "TLE_LINE2": "2 53009  53.2162 255.7376 0001399  90.6479 269.4673 15.08857802185106",
    "COMMENT": "Grouped by shell and plane from TLE"
  },
  {
    "OBJECT_NAME": "STARLINK-4265",
    "OBJECT_ID": "22076AB",
    "EPOCH": "2025-11-11T06:20:17.223936",
    "MEAN_MOTION": 15.08862159,
    "ECCENTRICITY": 9.87e-05,
    "INCLINATION": 53.2173,
    "RA_OF_ASC_NODE": 255.754,
    "ARG_OF_PERICENTER": 87.0331,
    "MEAN_ANOMALY": 273.0774,
    "EPHEMERIS_TYPE": 0,
    "CLASSIFICATION_TYPE": "U",
    "NORAD_CAT_ID": 53011,
    "ELEMENT_SET_NO": 999,
    "REV_AT_EPOCH": 18510,
    "BSTAR": 0.0,
    "MEAN_MOTION_DOT": -2.28e-05,
    "MEAN_MOTION_DDOT": 0.0,
    "TLE_LINE1": "1 53011U 22076AB  25315.26408824 -.00002280  00000+0 -12511-3 0  9993",
    "TLE_LINE2": "2 53011  53.2173 255.7540 0000987  87.0331 273.0774 15.08862159185107",
    "COMMENT": "Grouped by shell and plane from TLE"
  },
  {
    "OBJECT_NAME": "STARLINK-4177",
    "OBJECT_ID": "22076AD",
    "EPOCH": "2025-11-11T02:58:55.709760",
    "MEAN_MOTION": 15.08848328,
    "ECCENTRICITY": 0.0001442,
    "INCLINATION": 53.2165,
    "RA_OF_ASC_NODE": 256.3815,
    "ARG_OF_PERICENTER": 92.5063,
    "MEAN_ANOMALY": 267.6095,
    "EPHEMERIS_TYPE": 0,
    "CLASSIFICATION_TYPE": "U",
    "NORAD_CAT_ID": 53013,
    "ELEMENT_SET_NO": 999,
    "REV_AT_EPOCH": 18508,
    "BSTAR": 0.00026991,
    "MEAN_MOTION_DOT": 4.011e-05,
    "MEAN_MOTION_DDOT": 0.0,
    "TLE_LINE1": "1 53013U 22076AD  25315.12425590  .00004011  00000+0  26991-3 0  9998",
    "TLE_LINE2": "2 53013  53.2165 256.3815 0001442  92.5063 267.6095 15.08848328185086",
    "COMMENT": "Grouped by shell and plane from TLE"
  },
  {
    "OBJECT_NAME": "STARLINK-4183",
    "OBJECT_ID": "22076AE",
    "EPOCH": "2025-11-11T01:44:44.656512",
    "MEAN_MOTION": 15.08839861,
    "ECCENTRICITY": 0.0001591,
    "INCLINATION": 53.218,
    "RA_OF_ASC_NODE": 256.6118,
    "ARG_OF_PERICENTER": 96.8176,
    "MEAN_ANOMALY": 263.2997,
    "EPHEMERIS_TYPE": 0,
    "CLASSIFICATION_TYPE": "U",
    "NORAD_CAT_ID": 53014,
    "ELEMENT_SET_NO": 999,
    "REV_AT_EPOCH": 18507,
    "BSTAR": 0.00010489,
    "MEAN_MOTION_DOT": 1.382e-05,
    "MEAN_MOTION_DDOT": 0.0,
    "TLE_LINE1": "1 53014U 22076AE  25315.07273908  .00001382  00000+0  10489-3 0  9990",
    "TLE_LINE2": "2 53014  53.2180 256.6118 0001591  96.8176 263.2997 15.08839861185074",
    "COMMENT": "Grouped by shell and plane from TLE"
  },
  {
    "OBJECT_NAME": "STARLINK-4262",
    "OBJECT_ID": "22076AF",
    "EPOCH": "2025-11-11T05:59:04.824960",
    "MEAN_MOTION": 15.08859152,
    "ECCENTRICITY": 0.0001346,
    "INCLINATION": 53.2183,
    "RA_OF_ASC_NODE": 255.8185,
    "ARG_OF_PERICENTER": 81.1587,
    "MEAN_ANOMALY": 278.9558,
    "EPHEMERIS_TYPE": 0,
    "CLASSIFICATION_TYPE": "U",
    "NORAD_CAT_ID": 53015,
    "ELEMENT_SET_NO": 999,
    "REV_AT_EPOCH": 18510,
    "BSTAR": 0.00012694,
    "MEAN_MOTION_DOT": 1.734e-05,
    "MEAN_MOTION_DDOT": 0.0,
    "TLE_LINE1": "1 53015U 22076AF  25315.24936140  .00001734  00000+0  12694-3 0  9995",
    "TLE_LINE2": "2 53015  53.2183 255.8185 0001346  81.1587 278.9558 15.08859152185109",
    "COMMENT": "Grouped by shell and plane from TLE"
  },
  {
    "OBJECT_NAME": "STARLINK-4283",
    "OBJECT_ID": "22076AG",
    "EPOCH": "2025-11-11T03:04:13.653120",
    "MEAN_MOTION": 15.08847303,
    "ECCENTRICITY": 0.0001359,
    "INCLINATION": 53.2158,
    "RA_OF_ASC_NODE": 256.3649,
    "ARG_OF_PERICENTER": 89.0522,
    "MEAN_ANOMALY": 271.0626,
    "EPHEMERIS_TYPE": 0,
    "CLASSIFICATION_TYPE": "U",
    "NORAD_CAT_ID": 53016,
    "ELEMENT_SET_NO": 999,
    "REV_AT_EPOCH": 18508,
    "BSTAR": 0.0,
    "MEAN_MOTION_DOT": -5.14e-06,
    "MEAN_MOTION_DDOT": 0.0,
    "TLE_LINE1": "1 53016U 22076AG  25315.12793580 -.00000514  00000+0 -14233-4 0  9991",
    "TLE_LINE2": "2 53016  53.2158 256.3649 0001359  89.0522 271.0626 15.08847303185085",
    "COMMENT": "Grouped by shell and plane from TLE"
  },
  {
    "OBJECT_NAME": "STARLINK-4281",
    "OBJECT_ID": "22076AH",
    "EPOCH": "2025-11-11T05:53:49.195392",
    "MEAN_MOTION": 15.08823787,
    "ECCENTRICITY": 0.0001782,
    "INCLINATION": 53.2173,
    "RA_OF_ASC_NODE": 255.8334,
    "ARG_OF_PERICENTER": 90.3375,
    "MEAN_ANOMALY": 269.7821,
    "EPHEMERIS_TYPE": 0,
    "CLASSIFICATION_TYPE": "U",
    "NORAD_CAT_ID": 53017,
    "ELEMENT_SET_NO": 999,
    "REV_AT_EPOCH": 18511,
    "BSTAR": 8.1473e-05,
    "MEAN_MOTION_DOT": 1.008e-05,
    "MEAN_MOTION_DDOT": 0.0,
    "TLE_LINE1": "1 53017U 22076AH  25315.24570828  .00001008  00000+0  81473-4 0  9990",
    "TLE_LINE2": "2 53017  53.2173 255.8334 0001782  90.3375 269.7821 15.08823787185114",
    "COMMENT": "Grouped by shell and plane from TLE"
  },
  {
    "OBJECT_NAME": "STARLINK-4279",
    "OBJECT_ID": "22076AJ",
    "EPOCH": "2025-11-11T05:11:27.846528",
    "MEAN_MOTION": 15.08829674,
    "ECCENTRICITY": 0.0001643,
    "INCLINATION": 53.2192,
    "RA_OF_ASC_NODE": 256.2293,
    "ARG_OF_PERICENTER": 101.0454,
    "MEAN_ANOMALY": 259.0724,
    "EPHEMERIS_TYPE": 0,
    "CLASSIFICATION_TYPE": "U",
    "NORAD_CAT_ID": 53018,
    "ELEMENT_SET_NO": 999,
    "REV_AT_EPOCH": 18509,
    "BSTAR": 0.0,
    "MEAN_MOTION_DOT": -6.83e-06,
    "MEAN_MOTION_DDOT": 0.0,
    "TLE_LINE1": "1 53018U 22076AJ  25315.21629452 -.00000683  00000+0 -24841-4 0  9992",
    "TLE_LINE2": "2 53018  53.2192 256.2293 0001643 101.0454 259.0724 15.08829674185091",
    "COMMENT": "Grouped by shell and plane from TLE"
  },
  {
    "OBJECT_NAME": "STARLINK-4282",
    "OBJECT_ID": "22076AK",
    "EPOCH": "2025-11-11T05:43:12.557856",
    "MEAN_MOTION": 15.08841223,
    "ECCENTRICITY": 0.0001374,
    "INCLINATION": 53.2173,
    "RA_OF_ASC_NODE": 255.8702,
    "ARG_OF_PERICENTER": 88.1761,
    "MEAN_ANOMALY": 271.9389,
    "EPHEMERIS_TYPE": 0,
    "CLASSIFICATION_TYPE": "U",
    "NORAD_CAT_ID": 53019,
    "ELEMENT_SET_NO": 999,
    "REV_AT_EPOCH": 18510,
    "BSTAR": 0.00010752,
    "MEAN_MOTION_DOT": 1.424e-05,
    "MEAN_MOTION_DDOT": 0.0,
    "TLE_LINE1": "1 53019U 22076AK  25315.23833979  .00001424  00000+0  10752-3 0  9993",
    "TLE_LINE2": "2 53019  53.2173 255.8702 0001374  88.1761 271.9389 15.08841223185104",
    "COMMENT": "Grouped by shell and plane from TLE"
  }
]